{"type": "FeatureCollection", "features": [ {"type": "Feature", "properties": {"norad_id": 61183, "name": "GSAT0226 (GALILEO 31)", "group": "galileo", "lat": -18.934440497044456, "lon": 59.87233941682556, "alt_km": 23225.09204512148, "timestamp": "2025-12-25T19:00:39.613997+00:00", "meta": {"OBJECT_NAME": "GSAT0226 (GALILEO 31)", "OBJECT_ID": "2024-167B", "EPOCH": "2025-12-25T01:44:41.758656", "MEAN_MOTION": 1.70473602, "ECCENTRICITY": 0.00012523, "INCLINATION": 55.236, "RA_OF_ASC_NODE": 226.0978, "ARG_OF_PERICENTER": 109.4084, "MEAN_ANOMALY": 12.3648, "EPHEMERIS_TYPE": 0, "CLASSIFICATION_TYPE": "U", "NORAD_CAT_ID": 61183, "ELEMENT_SET_NO": 999, "REV_AT_EPOCH": 788, "BSTAR": 0, "MEAN_MOTION_DOT": 7.1e-07, "MEAN_MOTION_DDOT": 0}, "tle": {"line1": "1 61183U 24167B   25359.07270554  .00000071  00000+0  00000+0 0  9999", "line2": "2 61183  55.2360 226.0978 0001252 109.4084  12.3648  1.70473602  7889"}}, "geometry": {"type": "Point", "coordinates": [59.87233941682556, -18.934440497044456]}}, {"type": "Feature", "properties": {"norad_id": 67160, "name": "GALILEO A", "group": "galileo", "lat": 52.927751103377915, "lon": 179.26468222324166, "alt_km": 22960.697674422212, "timestamp": "2025-12-25T19:00:39.614009+00:00", "meta": {"OBJECT_NAME": "GALILEO A", "OBJECT_ID": "2025-302A", "EPOCH": "2025-12-18T03:30:19.486368", "MEAN_MOTION": 1.72906186, "ECCENTRICITY": 0.00084238, "INCLINATION": 54.2406, "RA_OF_ASC_NODE": 107.2544, "ARG_OF_PERICENTER": 237.6458, "MEAN_ANOMALY": 122.2317, "EPHEMERIS_TYPE": 0, "CLASSIFICATION_TYPE": "U", "NORAD_CAT_ID": 67160, "ELEMENT_SET_NO": 999, "REV_AT_EPOCH": 2, "BSTAR": 0, "MEAN_MOTION_DOT": -7e-08, "MEAN_MOTION_DDOT": 0}, "tle": {"line1": "1 67160U 25302A   25352.14605887 -.00000007  00000+0  00000+0 0  9994", "line2": "2 67160  54.2406 107.2544 0008423 237.6458 122.2317  1.72906186    28"}}, "geometry": {"type": "Point", "coordinates": [179.26468222324166, 52.927751103377915]}}, {"type": "Feature", "properties": {"norad_id": 67161, "name": "GALILEO B", "group": "galileo", "lat": 53.375703092515195, "lon": -177.42718757377375, "alt_km": 22943.602726928046, "timestamp": "2025-12-25T19:00:39.614034+00:00", "meta": {"OBJECT_NAME": "GALILEO B", "OBJECT_ID": "2025-302B", "EPOCH": "2025-12-19T07:14:53.290752", "MEAN_MOTION": 1.72972192, "ECCENTRICITY": 0.00045866, "INCLINATION": 54.2272, "RA_OF_ASC_NODE": 107.1916, "ARG_OF_PERICENTER": 255.0301, "MEAN_ANOMALY": 104.8802, "EPHEMERIS_TYPE": 0, "CLASSIFICATION_TYPE": "U", "NORAD_CAT_ID": 67161, "ELEMENT_SET_NO": 999, "REV_AT_EPOCH": 5, "BSTAR": 0, "MEAN_MOTION_DOT": -5e-08, "MEAN_MOTION_DDOT": 0}, "tle": {"line1": "1 67161U 25302B   25353.30200568 -.00000005  00000+0  00000+0 0  9999", "line2": "2 67161  54.2272 107.1916 0004586 255.0301 104.8802  1.72972192    57"}}, "geometry": {"type": "Point", "coordinates": [-177.42718757377375, 53.375703092515195]}}]}